CTC2_L_00338001-01
1 82213U 23183UA  26037.47793981  .00000000  00000+0  00000-0 0  9998
2 82213  40.0000   0.0000 0000000   0.0000   0.0000 13.42494869    13
CTC2_L_00338001-02
1 82214U 26921QA  26037.47793981  .00000000  00000+0  00000-0 0  9992
2 82214  40.0000   0.0000 0000000   0.0000  90.0000 13.42494869    13
CTC2_L_00338001-03
1 82215U 26013JY  26037.47793981  .00000000  00000+0  00000-0 0  9995
2 82215  40.0000   0.0000 0000000   0.0000 180.0000 13.42494869    14
CTC2_L_00338001-04
1 82216U 25681GT  26037.47793981  .00000000  00000+0  00000-0 0  9996
2 82216  40.0000   0.0000 0000000   0.0000 270.0000 13.42494869    15
CTC2_L_00338002-01
1 82217U 23460ZW  26037.47793981  .00000000  00000+0  00000-0 0  9990
2 82217  40.0000  12.0000 0000000   0.0000  12.0000 13.42494869    13
CTC2_L_00338002-02
1 82218U 23720VY  26037.47793981  .00000000  00000+0  00000-0 0  9990
2 82218  40.0000  12.0000 0000000   0.0000 102.0000 13.42494869    14
CTC2_L_00338002-03
1 82219U 24844SY  26037.47793981  .00000000  00000+0  00000-0 0  9999
2 82219  40.0000  12.0000 0000000   0.0000 192.0000 13.42494869    14
CTC2_L_00338002-04
1 82220U 25303KS  26037.47793981  .00000000  00000+0  00000-0 0  9992
2 82220  40.0000  12.0000 0000000   0.0000 282.0000 13.42494869    16
CTC2_L_00338003-01
1 82221U 22141ES  26037.47793981  .00000000  00000+0  00000-0 0  9990
2 82221  40.0000  24.0000 0000000   0.0000  24.0000 13.42494869    14
CTC2_L_00338003-02
1 82222U 25186JM  26037.47793981  .00000000  00000+0  00000-0 0  9993
2 82222  40.0000  24.0000 0000000   0.0000 114.0000 13.42494869    15
CTC2_L_00338003-03
1 82223U 23971VK  26037.47793981  .00000000  00000+0  00000-0 0  9994
2 82223  40.0000  24.0000 0000000   0.0000 204.0000 13.42494869    16
CTC2_L_00338003-04
1 82224U 24435OJ  26037.47793981  .00000000  00000+0  00000-0 0  9991
2 82224  40.0000  24.0000 0000000   0.0000 294.0000 13.42494869    16
CTC2_L_00338004-01
1 82225U 24249ZZ  26037.47793981  .00000000  00000+0  00000-0 0  9995
2 82225  40.0000  36.0000 0000000   0.0000  36.0000 13.42494869    14
CTC2_L_00338004-02
1 82226U 26668GM  26037.47793981  .00000000  00000+0  00000-0 0  9993
2 82226  40.0000  36.0000 0000000   0.0000 126.0000 13.42494869    15
CTC2_L_00338004-03
1 82227U 24263XJ  26037.47793981  .00000000  00000+0  00000-0 0  9993
2 82227  40.0000  36.0000 0000000   0.0000 216.0000 13.42494869    16
CTC2_L_00338004-04
1 82228U 22278OO  26037.47793981  .00000000  00000+0  00000-0 0  9998
2 82228  40.0000  36.0000 0000000   0.0000 306.0000 13.42494869    17
CTC2_L_00338005-01
1 82229U 25328CY  26037.47793981  .00000000  00000+0  00000-0 0  9998
2 82229  40.0000  48.0000 0000000   0.0000  48.0000 13.42494869    14
CTC2_L_00338005-02
1 82230U 23946TK  26037.47793981  .00000000  00000+0  00000-0 0  9994
2 82230  40.0000  48.0000 0000000   0.0000 138.0000 13.42494869    16
CTC2_L_00338005-03
1 82231U 23513MT  26037.47793981  .00000000  00000+0  00000-0 0  9995
2 82231  40.0000  48.0000 0000000   0.0000 228.0000 13.42494869    17
CTC2_L_00338005-04
1 82232U 24788SV  26037.47793981  .00000000  00000+0  00000-0 0  9991
2 82232  40.0000  48.0000 0000000   0.0000 318.0000 13.42494869    18
CTC2_L_00338006-01
1 82233U 23599DH  26037.47793981  .00000000  00000+0  00000-0 0  9991
2 82233  40.0000  60.0000 0000000   0.0000  60.0000 13.42494869    17
CTC2_L_00338006-02
1 82234U 25058RX  26037.47793981  .00000000  00000+0  00000-0 0  9994
2 82234  40.0000  60.0000 0000000   0.0000 150.0000 13.42494869    18
CTC2_L_00338006-03
1 82235U 23690GQ  26037.47793981  .00000000  00000+0  00000-0 0  9995
2 82235  40.0000  60.0000 0000000   0.0000 240.0000 13.42494869    19
CTC2_L_00338006-04
1 82236U 22023GR  26037.47793981  .00000000  00000+0  00000-0 0  9995
2 82236  40.0000  60.0000 0000000   0.0000 330.0000 13.42494869    10
CTC2_L_00338007-01
1 82237U 24132OV  26037.47793981  .00000000  00000+0  00000-0 0  9999
2 82237  40.0000  72.0000 0000000   0.0000  72.0000 13.42494869    17
CTC2_L_00338007-02
1 82238U 22199OA  26037.47793981  .00000000  00000+0  00000-0 0  9991
2 82238  40.0000  72.0000 0000000   0.0000 162.0000 13.42494869    18
CTC2_L_00338007-03
1 82239U 24249HA  26037.47793981  .00000000  00000+0  00000-0 0  9990
2 82239  40.0000  72.0000 0000000   0.0000 252.0000 13.42494869    19
CTC2_L_00338007-04
1 82240U 24753HN  26037.47793981  .00000000  00000+0  00000-0 0  9992
2 82240  40.0000  72.0000 0000000   0.0000 342.0000 13.42494869    11
CTC2_L_00338008-01
1 82241U 22639UF  26037.47793981  .00000000  00000+0  00000-0 0  9994
2 82241  40.0000  84.0000 0000000   0.0000  84.0000 13.42494869    18
CTC2_L_00338008-02
1 82242U 26487XR  26037.47793981  .00000000  00000+0  00000-0 0  9990
2 82242  40.0000  84.0000 0000000   0.0000 174.0000 13.42494869    19
CTC2_L_00338008-03
1 82243U 24421QY  26037.47793981  .00000000  00000+0  00000-0 0  9997
2 82243  40.0000  84.0000 0000000   0.0000 264.0000 13.42494869    10
CTC2_L_00338008-04
1 82244U 22020NX  26037.47793981  .00000000  00000+0  00000-0 0  9991
2 82244  40.0000  84.0000 0000000   0.0000 354.0000 13.42494869    11
CTC2_L_00338009-01
1 82245U 22083J   26037.47793981  .00000000  00000+0  00000-0 0  9991
2 82245  40.0000  96.0000 0000000   0.0000  96.0000 13.42494869    18
CTC2_L_00338009-02
1 82246U 22993OZ  26037.47793981  .00000000  00000+0  00000-0 0  9992
2 82246  40.0000  96.0000 0000000   0.0000 186.0000 13.42494869    19
CTC2_L_00338009-03
1 82247U 26768HO  26037.47793981  .00000000  00000+0  00000-0 0  9997
2 82247  40.0000  96.0000 0000000   0.0000 276.0000 13.42494869    10
CTC2_L_00338009-04
1 82248U 26091VV  26037.47793981  .00000000  00000+0  00000-0 0  9997
2 82248  40.0000  96.0000 0000000   0.0000   6.0000 13.42494869    12
CTC2_L_00338010-01
1 82249U 22521FP  26037.47793981  .00000000  00000+0  00000-0 0  9992
2 82249  40.0000 108.0000 0000000   0.0000 108.0000 13.42494869    10
CTC2_L_00338010-02
1 82250U 26973CY  26037.47793981  .00000000  00000+0  00000-0 0  9999
2 82250  40.0000 108.0000 0000000   0.0000 198.0000 13.42494869    11
CTC2_L_00338010-03
1 82251U 22733SB  26037.47793981  .00000000  00000+0  00000-0 0  9990
2 82251  40.0000 108.0000 0000000   0.0000 288.0000 13.42494869    12
CTC2_L_00338010-04
1 82252U 26650ZH  26037.47793981  .00000000  00000+0  00000-0 0  9993
2 82252  40.0000 108.0000 0000000   0.0000  18.0000 13.42494869    14
CTC2_L_00338011-01
1 82253U 24787ZQ  26037.47793981  .00000000  00000+0  00000-0 0  9993
2 82253  40.0000 120.0000 0000000   0.0000 120.0000 13.42494869    13
CTC2_L_00338011-02
1 82254U 24748IP  26037.47793981  .00000000  00000+0  00000-0 0  9991
2 82254  40.0000 120.0000 0000000   0.0000 210.0000 13.42494869    14
CTC2_L_00338011-03
1 82255U 24824EE  26037.47793981  .00000000  00000+0  00000-0 0  9997
2 82255  40.0000 120.0000 0000000   0.0000 300.0000 13.42494869    15
CTC2_L_00338011-04
1 82256U 22627RK  26037.47793981  .00000000  00000+0  00000-0 0  9997
2 82256  40.0000 120.0000 0000000   0.0000  30.0000 13.42494869    16
CTC2_L_00338012-01
1 82257U 25115TR  26037.47793981  .00000000  00000+0  00000-0 0  9993
2 82257  40.0000 132.0000 0000000   0.0000 132.0000 13.42494869    13
CTC2_L_00338012-02
1 82258U 26661DC  26037.47793981  .00000000  00000+0  00000-0 0  9991
2 82258  40.0000 132.0000 0000000   0.0000 222.0000 13.42494869    14
CTC2_L_00338012-03
1 82259U 22213SI  26037.47793981  .00000000  00000+0  00000-0 0  9991
2 82259  40.0000 132.0000 0000000   0.0000 312.0000 13.42494869    15
CTC2_L_00338012-04
1 82260U 24132ZN  26037.47793981  .00000000  00000+0  00000-0 0  9995
2 82260  40.0000 132.0000 0000000   0.0000  42.0000 13.42494869    17
CTC2_L_00338013-01
1 82261U 25912TG  26037.47793981  .00000000  00000+0  00000-0 0  9993
2 82261  40.0000 144.0000 0000000   0.0000 144.0000 13.42494869    14
CTC2_L_00338013-02
1 82262U 24490ZH  26037.47793981  .00000000  00000+0  00000-0 0  9994
2 82262  40.0000 144.0000 0000000   0.0000 234.0000 13.42494869    15
CTC2_L_00338013-03
1 82263U 26628NG  26037.47793981  .00000000  00000+0  00000-0 0  9990
2 82263  40.0000 144.0000 0000000   0.0000 324.0000 13.42494869    16
CTC2_L_00338013-04
1 82264U 22437XJ  26037.47793981  .00000000  00000+0  00000-0 0  9995
2 82264  40.0000 144.0000 0000000   0.0000  54.0000 13.42494869    17
CTC2_L_00338014-01
1 82265U 24858ZV  26037.47793981  .00000000  00000+0  00000-0 0  9995
2 82265  40.0000 156.0000 0000000   0.0000 156.0000 13.42494869    14
CTC2_L_00338014-02
1 82266U 26153PE  26037.47793981  .00000000  00000+0  00000-0 0  9996
2 82266  40.0000 156.0000 0000000   0.0000 246.0000 13.42494869    15
CTC2_L_00338014-03
1 82267U 26357RE  26037.47793981  .00000000  00000+0  00000-0 0  9993
2 82267  40.0000 156.0000 0000000   0.0000 336.0000 13.42494869    16
CTC2_L_00338014-04
1 82268U 23793NO  26037.47793981  .00000000  00000+0  00000-0 0  9995
2 82268  40.0000 156.0000 0000000   0.0000  66.0000 13.42494869    17
CTC2_L_00338015-01
1 82269U 24160SS  26037.47793981  .00000000  00000+0  00000-0 0  9995
2 82269  40.0000 168.0000 0000000   0.0000 168.0000 13.42494869    14
CTC2_L_00338015-02
1 82270U 22873MO  26037.47793981  .00000000  00000+0  00000-0 0  9996
2 82270  40.0000 168.0000 0000000   0.0000 258.0000 13.42494869    16
CTC2_L_00338015-03
1 82271U 24753JH  26037.47793981  .00000000  00000+0  00000-0 0  9996
2 82271  40.0000 168.0000 0000000   0.0000 348.0000 13.42494869    17
CTC2_L_00338015-04
1 82272U 23401XT  26037.47793981  .00000000  00000+0  00000-0 0  9996
2 82272  40.0000 168.0000 0000000   0.0000  78.0000 13.42494869    18
CTC2_L_00338016-01
1 82273U 26605M   26037.47793981  .00000000  00000+0  00000-0 0  9996
2 82273  40.0000 180.0000 0000000   0.0000 180.0000 13.42494869    17
CTC2_L_00338016-02
1 82274U 22282OH  26037.47793981  .00000000  00000+0  00000-0 0  9994
2 82274  40.0000 180.0000 0000000   0.0000 270.0000 13.42494869    18
